{
  "type": "FeatureCollection",
  "features": [
    {
      "type": "Feature",
      "properties": {
        "norad_id": 36559,
        "name": "COSMOS 2251 DEB",
        "group": "cosmos-2251-debris",
        "lat": -70.880676878277,
        "lon": -117.11060427439494,
        "alt_km": 1062.8633349938455,
        "timestamp": "2025-12-13T22:39:30.108965+00:00",
        "meta_object_name": "COSMOS 2251 DEB",
        "meta_object_id": "1993-036BDV",
        "meta_epoch": "2025-12-13T02:29:27.239136",
        "meta_mean_motion": 13.95198935,
        "meta_eccentricity": 0.02600451,
        "meta_inclination": 74.1313,
        "meta_ra_of_asc_node": 9.1868,
        "meta_arg_of_pericenter": 41.9137,
        "meta_mean_anomaly": 320.158,
        "meta_ephemeris_type": 0,
        "meta_classification_type": "U",
        "meta_norad_cat_id": 36559,
        "meta_element_set_no": 999,
        "meta_rev_at_epoch": 81099,
        "meta_bstar": 0.0040329157,
        "meta_mean_motion_dot": 7.21e-05,
        "meta_mean_motion_ddot": 0,
        "tle_line1": "1 36559U 93036BDV 25347.10378749  .00007210  00000+0  40329-2 0  9998",
        "tle_line2": "2 36559  74.1313   9.1868 0260045  41.9137 320.1580 13.95198935810992"
      },
      "geometry": {
        "type": "Point",
        "coordinates": [
          -117.11060427439494,
          -70.880676878277
        ]
      }
    },
    {
      "type": "Feature",
      "properties": {
        "norad_id": 36614,
        "name": "COSMOS 2251 DEB",
        "group": "cosmos-2251-debris",
        "lat": 5.901079852166356,
        "lon": 173.98307151036948,
        "alt_km": 700.5714412275629,
        "timestamp": "2025-12-13T22:39:30.108975+00:00",
        "meta_object_name": "COSMOS 2251 DEB",
        "meta_object_id": "1993-036BEC",
        "meta_epoch": "2025-12-11T06:30:21.400992",
        "meta_mean_motion": 14.60233542,
        "meta_eccentricity": 0.00161993,
        "meta_inclination": 74.0218,
        "meta_ra_of_asc_node": 177.391,
        "meta_arg_of_pericenter": 247.2616,
        "meta_mean_anomaly": 112.6838,
        "meta_ephemeris_type": 0,
        "meta_classification_type": "U",
        "meta_norad_cat_id": 36614,
        "meta_element_set_no": 999,
        "meta_rev_at_epoch": 65591,
        "meta_bstar": 0.0024222077,
        "meta_mean_motion_dot": 0.00011696,
        "meta_mean_motion_ddot": 0,
        "tle_line1": "1 36614U 93036BEC 25345.27108103  .00011696  00000+0  24222-2 0  9998",
        "tle_line2": "2 36614  74.0218 177.3910 0016199 247.2616 112.6838 14.60233542655911"
      },
      "geometry": {
        "type": "Point",
        "coordinates": [
          173.98307151036948,
          5.901079852166356
        ]
      }
    },
    {
      "type": "Feature",
      "properties": {
        "norad_id": 36622,
        "name": "COSMOS 2251 DEB",
        "group": "cosmos-2251-debris",
        "lat": 38.86525208279366,
        "lon": -50.24267430514527,
        "alt_km": 674.3889972477336,
        "timestamp": "2025-12-13T22:39:30.108985+00:00",
        "meta_object_name": "COSMOS 2251 DEB",
        "meta_object_id": "1993-036BEL",
        "meta_epoch": "2025-12-13T04:07:59.528928",
        "meta_mean_motion": 14.76203873,
        "meta_eccentricity": 0.00688136,
        "meta_inclination": 74.0135,
        "meta_ra_of_asc_node": 144.6283,
        "meta_arg_of_pericenter": 279.9599,
        "meta_mean_anomaly": 79.3813,
        "meta_ephemeris_type": 0,
        "meta_classification_type": "U",
        "meta_norad_cat_id": 36622,
        "meta_element_set_no": 999,
        "meta_rev_at_epoch": 66756,
        "meta_bstar": 0.0010024349,
        "meta_mean_motion_dot": 7.182e-05,
        "meta_mean_motion_ddot": 0,
        "tle_line1": "1 36622U 93036BEL 25347.17221677  .00007182  00000+0  10024-2 0  9990",
        "tle_line2": "2 36622  74.0135 144.6283 0068813 279.9599  79.3813 14.76203873667567"
      },
      "geometry": {
        "type": "Point",
        "coordinates": [
          -50.24267430514527,
          38.86525208279366
        ]
      }
    },
    {
      "type": "Feature",
      "properties": {
        "norad_id": 36632,
        "name": "COSMOS 2251 DEB",
        "group": "cosmos-2251-debris",
        "lat": 20.12374274764389,
        "lon": 104.09672776716953,
        "alt_km": 759.4668905400576,
        "timestamp": "2025-12-13T22:39:30.108995+00:00",
        "meta_object_name": "COSMOS 2251 DEB",
        "meta_object_id": "1993-036BEW",
        "meta_epoch": "2025-12-11T03:22:48.137088",
        "meta_mean_motion": 14.43159024,
        "meta_eccentricity": 0.00319439,
        "meta_inclination": 74.0027,
        "meta_ra_of_asc_node": 295.3456,
        "meta_arg_of_pericenter": 43.4523,
        "meta_mean_anomaly": 316.9142,
        "meta_ephemeris_type": 0,
        "meta_classification_type": "U",
        "meta_norad_cat_id": 36632,
        "meta_element_set_no": 999,
        "meta_rev_at_epoch": 65192,
        "meta_bstar": 0.001324385,
        "meta_mean_motion_dot": 4.453e-05,
        "meta_mean_motion_ddot": 0,
        "tle_line1": "1 36632U 93036BEW 25345.14083492  .00004453  00000+0  13244-2 0  9992",
        "tle_line2": "2 36632  74.0027 295.3456 0031943  43.4523 316.9142 14.43159024651929"
      },
      "geometry": {
        "type": "Point",
        "coordinates": [
          104.09672776716953,
          20.12374274764389
        ]
      }
    },
    {
      "type": "Feature",
      "properties": {
        "norad_id": 37084,
        "name": "COSMOS 2251 DEB",
        "group": "cosmos-2251-debris",
        "lat": 48.003250294046545,
        "lon": 177.55082910800314,
        "alt_km": 626.3680486857465,
        "timestamp": "2025-12-13T22:39:30.109005+00:00",
        "meta_object_name": "COSMOS 2251 DEB",
        "meta_object_id": "1993-036BFE",
        "meta_epoch": "2025-12-08T19:15:18.077184",
        "meta_mean_motion": 15.00891112,
        "meta_eccentricity": 0.00979748,
        "meta_inclination": 74.0259,
        "meta_ra_of_asc_node": 169.4673,
        "meta_arg_of_pericenter": 250.8811,
        "meta_mean_anomaly": 108.175,
        "meta_ephemeris_type": 0,
        "meta_classification_type": "U",
        "meta_norad_cat_id": 37084,
        "meta_element_set_no": 999,
        "meta_rev_at_epoch": 66208,
        "meta_bstar": 0.00080064992,
        "meta_mean_motion_dot": 0.00011267,
        "meta_mean_motion_ddot": 0,
        "tle_line1": "1 37084U 93036BFE 25342.80229256  .00011267  00000+0  80065-3 0  9991",
        "tle_line2": "2 37084  74.0259 169.4673 0097974 250.8811 108.1750 15.00891112662080"
      },
      "geometry": {
        "type": "Point",
        "coordinates": [
          177.55082910800314,
          48.003250294046545
        ]
      }
    },
    {
      "type": "Feature",
      "properties": {
        "norad_id": 37085,
        "name": "COSMOS 2251 DEB",
        "group": "cosmos-2251-debris",
        "lat": -73.09080084229532,
        "lon": 142.13176490043915,
        "alt_km": 458.18300720144816,
        "timestamp": "2025-12-13T22:39:30.109015+00:00",
        "meta_object_name": "COSMOS 2251 DEB",
        "meta_object_id": "1993-036BFF",
        "meta_epoch": "2025-12-12T22:06:23.478048",
        "meta_mean_motion": 15.41572455,
        "meta_eccentricity": 0.00213691,
        "meta_inclination": 73.9479,
        "meta_ra_of_asc_node": 215.6494,
        "meta_arg_of_pericenter": 54.1611,
        "meta_mean_anomaly": 306.1578,
        "meta_ephemeris_type": 0,
        "meta_classification_type": "U",
        "meta_norad_cat_id": 37085,
        "meta_element_set_no": 999,
        "meta_rev_at_epoch": 67140,
        "meta_bstar": 0.0027639648,
        "meta_mean_motion_dot": 0.0011891,
        "meta_mean_motion_ddot": 0,
        "tle_line1": "1 37085U 93036BFF 25346.92110507  .00118910  00000+0  27640-2 0  9999",
        "tle_line2": "2 37085  73.9479 215.6494 0021369  54.1611 306.1578 15.41572455671401"
      },
      "geometry": {
        "type": "Point",
        "coordinates": [
          142.13176490043915,
          -73.09080084229532
        ]
      }
    },
    {
      "type": "Feature",
      "properties": {
        "norad_id": 37089,
        "name": "COSMOS 2251 DEB",
        "group": "cosmos-2251-debris",
        "lat": 31.160223349127172,
        "lon": 153.43939599286728,
        "alt_km": 795.8816486517671,
        "timestamp": "2025-12-13T22:39:30.109026+00:00",
        "meta_object_name": "COSMOS 2251 DEB",
        "meta_object_id": "1993-036BFK",
        "meta_epoch": "2025-12-13T04:19:45.135264",
        "meta_mean_motion": 14.52965066,
        "meta_eccentricity": 0.01351497,
        "meta_inclination": 74.0367,
        "meta_ra_of_asc_node": 144.9132,
        "meta_arg_of_pericenter": 245.0229,
        "meta_mean_anomaly": 113.6845,
        "meta_ephemeris_type": 0,
        "meta_classification_type": "U",
        "meta_norad_cat_id": 37089,
        "meta_element_set_no": 999,
        "meta_rev_at_epoch": 66116,
        "meta_bstar": 0.0037726946,
        "meta_mean_motion_dot": 0.00017561,
        "meta_mean_motion_ddot": 0,
        "tle_line1": "1 37089U 93036BFK 25347.18038351  .00017561  00000+0  37727-2 0  9995",
        "tle_line2": "2 37089  74.0367 144.9132 0135149 245.0229 113.6845 14.52965066661169"
      },
      "geometry": {
        "type": "Point",
        "coordinates": [
          153.43939599286728,
          31.160223349127172
        ]
      }
    }
  ]
}